start=new Date('2022-01-14T00:00:00.000Z').valueOf();
sats=[{"TIME_SYSTEM":"UTC","OBJECT_TYPE":"PAYLOAD","RCS_SIZE":"LARGE","MEAN_ELEMENT_THEORY":"SGP4","EPOCH":"2022-01-13T22:00:00.999936","TLE_LINE1":"1 49737U 21115P   22013.91667824 -.00033875  00000-0 -81694-3 0  9990","NORAD_CAT_ID":"49737","CENTER_NAME":"EARTH","RA_OF_ASC_NODE":"119.5015","OBJECT_ID":"2021-115P","MEAN_ANOMALY":"278.3098","LAUNCH_DATE":"2021-12-02","ARG_OF_PERICENTER":"27.0786","SEMIMAJOR_AXIS":"6822.822","COUNTRY_CODE":"US","MEAN_MOTION":"15.40482423","REV_AT_EPOCH":"361","INCLINATION":"53.2152","BSTAR":"-0.00081694000000","REF_FRAME":"TEME","GP_ID":"193814024","APOAPSIS":"446.094","FILE":"3272312","ECCENTRICITY":"0.00020630","CLASSIFICATION_TYPE":"U","SITE":"AFETR","DECAY_DATE":null,"ELEMENT_SET_NO":"999","MEAN_MOTION_DOT":"-0.00033875","PERIAPSIS":"443.279","TLE_LINE2":"2 49737  53.2152 119.5015 0002063  27.0786 278.3098 15.40482423  3613","OBJECT_NAME":"STARLINK-3225","MEAN_MOTION_DDOT":"0.0000000000000","PERIOD":"93.477","EPHEMERIS_TYPE":"0"},{"EPHEMERIS_TYPE":"0","PERIOD":"93.477","MEAN_MOTION_DDOT":"0.0000000000000","OBJECT_NAME":"STARLINK-3143","TLE_LINE2":"2 49738  53.2145 119.5050 0002327  22.8209 279.4144 15.40481828  3613","PERIAPSIS":"443.101","MEAN_MOTION_DOT":"-0.00032696","ELEMENT_SET_NO":"999","DECAY_DATE":null,"SITE":"AFETR","CLASSIFICATION_TYPE":"U","ECCENTRICITY":"0.00023270","FILE":"3272312","GP_ID":"193814275","APOAPSIS":"446.276","REF_FRAME":"TEME","BSTAR":"-0.00078803000000","INCLINATION":"53.2145","REV_AT_EPOCH":"361","COUNTRY_CODE":"US","MEAN_MOTION":"15.40481828","ARG_OF_PERICENTER":"22.8209","SEMIMAJOR_AXIS":"6822.823","LAUNCH_DATE":"2021-12-02","MEAN_ANOMALY":"279.4144","OBJECT_ID":"2021-115Q","RA_OF_ASC_NODE":"119.5050","CENTER_NAME":"EARTH","TLE_LINE1":"1 49738U 21115Q   22013.91667824 -.00032696  00000-0 -78803-3 0  9999","NORAD_CAT_ID":"49738","MEAN_ELEMENT_THEORY":"SGP4","EPOCH":"2022-01-13T22:00:00.999936","RCS_SIZE":"LARGE","TIME_SYSTEM":"UTC","OBJECT_TYPE":"PAYLOAD"},{"RA_OF_ASC_NODE":"123.8257","CENTER_NAME":"EARTH","TLE_LINE1":"1 49739U 21115R   22013.91667824 -.00024985  00000-0 -15565-2 0  9997","NORAD_CAT_ID":"49739","EPOCH":"2022-01-13T22:00:00.999936","MEAN_ELEMENT_THEORY":"SGP4","RCS_SIZE":"LARGE","OBJECT_TYPE":"PAYLOAD","TIME_SYSTEM":"UTC","MEAN_ANOMALY":"117.9212","OBJECT_ID":"2021-115R","MEAN_MOTION":"15.08853706","COUNTRY_CODE":"US","SEMIMAJOR_AXIS":"6917.838","ARG_OF_PERICENTER":"38.5417","LAUNCH_DATE":"2021-12-02","REV_AT_EPOCH":"358","REF_FRAME":"TEME","BSTAR":"-0.00155650000000","INCLINATION":"53.1939","ECCENTRICITY":"0.00019500","FILE":"3272312","APOAPSIS":"541.052","GP_ID":"193813023","OBJECT_NAME":"STARLINK-3155","PERIAPSIS":"538.355","TLE_LINE2":"2 49739  53.1939 123.8257 0001950  38.5417 117.9212 15.08853706  3587","MEAN_MOTION_DOT":"-0.00024985","ELEMENT_SET_NO":"999","DECAY_DATE":null,"SITE":"AFETR","CLASSIFICATION_TYPE":"U","EPHEMERIS_TYPE":"0","PERIOD":"95.437","MEAN_MOTION_DDOT":"0.0000000000000"},{"BSTAR":"-0.00120300000000","INCLINATION":"53.2146","REF_FRAME":"TEME","GP_ID":"193813273","APOAPSIS":"446.376","ECCENTRICITY":"0.00025340","FILE":"3272312","MEAN_MOTION_DOT":"-0.00049616","ELEMENT_SET_NO":"999","DECAY_DATE":null,"CLASSIFICATION_TYPE":"U","SITE":"AFETR","OBJECT_NAME":"STARLINK-3226","PERIAPSIS":"442.918","TLE_LINE2":"2 49740  53.2146 119.5112 0002534  26.7607 272.3060 15.40495870  3612","PERIOD":"93.476","MEAN_MOTION_DDOT":"0.0000000000000","EPHEMERIS_TYPE":"0","RCS_SIZE":"LARGE","TIME_SYSTEM":"UTC","OBJECT_TYPE":"PAYLOAD","RA_OF_ASC_NODE":"119.5112","CENTER_NAME":"EARTH","TLE_LINE1":"1 49740U 21115S   22013.91667824 -.00049616  00000-0 -12030-2 0  9991","NORAD_CAT_ID":"49740","EPOCH":"2022-01-13T22:00:00.999936","MEAN_ELEMENT_THEORY":"SGP4","OBJECT_ID":"2021-115S","MEAN_ANOMALY":"272.3060","LAUNCH_DATE":"2021-12-02","COUNTRY_CODE":"US","MEAN_MOTION":"15.40495870","SEMIMAJOR_AXIS":"6822.782","ARG_OF_PERICENTER":"26.7607","REV_AT_EPOCH":"361"},{"TIME_SYSTEM":"UTC","OBJECT_TYPE":"PAYLOAD","RCS_SIZE":"LARGE","MEAN_ELEMENT_THEORY":"SGP4","EPOCH":"2022-01-13T22:00:00.999936","TLE_LINE1":"1 49741U 21115T   22013.91667824 -.00062467  00000-0 -15193-2 0  9994","NORAD_CAT_ID":"49741","CENTER_NAME":"EARTH","RA_OF_ASC_NODE":"119.5088","OBJECT_ID":"2021-115T","MEAN_ANOMALY":"275.8310","LAUNCH_DATE":"2021-12-02","SEMIMAJOR_AXIS":"6822.760","ARG_OF_PERICENTER":"25.3212","MEAN_MOTION":"15.40503220","COUNTRY_CODE":"US","REV_AT_EPOCH":"361","INCLINATION":"53.2150","BSTAR":"-0.00151930000000","REF_FRAME":"TEME","GP_ID":"193813524","APOAPSIS":"446.424","FILE":"3272312","ECCENTRICITY":"0.00026360","CLASSIFICATION_TYPE":"U","SITE":"AFETR","DECAY_DATE":null,"ELEMENT_SET_NO":"999","MEAN_MOTION_DOT":"-0.00062467","PERIAPSIS":"442.827","TLE_LINE2":"2 49741  53.2150 119.5088 0002636  25.3212 275.8310 15.40503220  3615","OBJECT_NAME":"STARLINK-3244","MEAN_MOTION_DDOT":"0.0000000000000","PERIOD":"93.476","EPHEMERIS_TYPE":"0"},{"REV_AT_EPOCH":"361","SEMIMAJOR_AXIS":"6822.787","ARG_OF_PERICENTER":"25.9950","MEAN_MOTION":"15.40494022","COUNTRY_CODE":"US","LAUNCH_DATE":"2021-12-02","MEAN_ANOMALY":"270.9725","OBJECT_ID":"2021-115U","RA_OF_ASC_NODE":"119.5175","EPOCH":"2022-01-13T22:00:00.999936","MEAN_ELEMENT_THEORY":"SGP4","TLE_LINE1":"1 49742U 21115U   22013.91667824 -.00052325  00000-0 -12697-2 0  9993","CENTER_NAME":"EARTH","NORAD_CAT_ID":"49742","RCS_SIZE":"LARGE","TIME_SYSTEM":"UTC","OBJECT_TYPE":"PAYLOAD","EPHEMERIS_TYPE":"0","PERIOD":"93.477","MEAN_MOTION_DDOT":"0.0000000000000","OBJECT_NAME":"STARLINK-3202","TLE_LINE2":"2 49742  53.2167 119.5175 0002756  25.9950 270.9725 15.40494022  3614","PERIAPSIS":"442.772","ELEMENT_SET_NO":"999","MEAN_MOTION_DOT":"-0.00052325","SITE":"AFETR","CLASSIFICATION_TYPE":"U","DECAY_DATE":null,"ECCENTRICITY":"0.00027560","FILE":"3272312","GP_ID":"193813775","APOAPSIS":"446.533","REF_FRAME":"TEME","BSTAR":"-0.00126970000000","INCLINATION":"53.2167"},{"MEAN_ANOMALY":"278.9419","OBJECT_ID":"2021-115V","MEAN_ELEMENT_THEORY":"SGP4","EPOCH":"2022-01-13T22:00:00.999936","CENTER_NAME":"EARTH","TLE_LINE1":"1 49743U 21115V   22013.91667824 -.00033871  00000-0 -81662-3 0  9998","NORAD_CAT_ID":"49743","RA_OF_ASC_NODE":"119.5102","TIME_SYSTEM":"UTC","OBJECT_TYPE":"PAYLOAD","RCS_SIZE":"LARGE","REV_AT_EPOCH":"361","SEMIMAJOR_AXIS":"6822.801","ARG_OF_PERICENTER":"21.1827","COUNTRY_CODE":"US","MEAN_MOTION":"15.40489273","LAUNCH_DATE":"2021-12-02","FILE":"3272312","ECCENTRICITY":"0.00025340","APOAPSIS":"446.395","GP_ID":"193812523","REF_FRAME":"TEME","INCLINATION":"53.2149","BSTAR":"-0.00081662000000","EPHEMERIS_TYPE":"0","MEAN_MOTION_DDOT":"0.0000000000000","PERIOD":"93.477","TLE_LINE2":"2 49743  53.2149 119.5102 0002534  21.1827 278.9419 15.40489273  3610","PERIAPSIS":"442.937","OBJECT_NAME":"STARLINK-3239","SITE":"AFETR","CLASSIFICATION_TYPE":"U","DECAY_DATE":null,"ELEMENT_SET_NO":"999","MEAN_MOTION_DOT":"-0.00033871"},{"MEAN_MOTION_DDOT":"0.0000000000000","PERIOD":"93.477","EPHEMERIS_TYPE":"0","MEAN_MOTION_DOT":"-0.00034289","ELEMENT_SET_NO":"999","DECAY_DATE":null,"CLASSIFICATION_TYPE":"U","SITE":"AFETR","OBJECT_NAME":"STARLINK-3231","TLE_LINE2":"2 49744  53.2167 119.5213 0002730  21.4936 273.3902 15.40482653  3617","PERIAPSIS":"442.823","GP_ID":"193812773","APOAPSIS":"446.548","ECCENTRICITY":"0.00027300","FILE":"3272312","BSTAR":"-0.00082701000000","INCLINATION":"53.2167","REF_FRAME":"TEME","REV_AT_EPOCH":"361","LAUNCH_DATE":"2021-12-02","COUNTRY_CODE":"US","MEAN_MOTION":"15.40482653","SEMIMAJOR_AXIS":"6822.821","ARG_OF_PERICENTER":"21.4936","OBJECT_ID":"2021-115W","MEAN_ANOMALY":"273.3902","RCS_SIZE":"LARGE","TIME_SYSTEM":"UTC","OBJECT_TYPE":"PAYLOAD","RA_OF_ASC_NODE":"119.5213","CENTER_NAME":"EARTH","TLE_LINE1":"1 49744U 21115W   22013.91667824 -.00034289  00000-0 -82701-3 0  9998","NORAD_CAT_ID":"49744","MEAN_ELEMENT_THEORY":"SGP4","EPOCH":"2022-01-13T22:00:00.999936"},{"MEAN_ANOMALY":"273.9744","OBJECT_ID":"2021-115X","EPOCH":"2022-01-13T22:00:00.999936","MEAN_ELEMENT_THEORY":"SGP4","TLE_LINE1":"1 49745U 21115X   22013.91667824 -.00053102  00000-0 -12888-2 0  9992","NORAD_CAT_ID":"49745","CENTER_NAME":"EARTH","RA_OF_ASC_NODE":"119.5142","TIME_SYSTEM":"UTC","OBJECT_TYPE":"PAYLOAD","RCS_SIZE":"LARGE","REV_AT_EPOCH":"361","SEMIMAJOR_AXIS":"6822.784","ARG_OF_PERICENTER":"24.0434","MEAN_MOTION":"15.40495146","COUNTRY_CODE":"US","LAUNCH_DATE":"2021-12-02","FILE":"3272312","ECCENTRICITY":"0.00027350","APOAPSIS":"446.515","GP_ID":"193814025","REF_FRAME":"TEME","INCLINATION":"53.2148","BSTAR":"-0.00128880000000","EPHEMERIS_TYPE":"0","PERIOD":"93.476","MEAN_MOTION_DDOT":"0.0000000000000","PERIAPSIS":"442.783","TLE_LINE2":"2 49745  53.2148 119.5142 0002735  24.0434 273.9744 15.40495146  3616","OBJECT_NAME":"STARLINK-3241","CLASSIFICATION_TYPE":"U","SITE":"AFETR","DECAY_DATE":null,"ELEMENT_SET_NO":"999","MEAN_MOTION_DOT":"-0.00053102"},{"OBJECT_ID":"2021-115Y","MEAN_ANOMALY":"269.2276","TIME_SYSTEM":"UTC","OBJECT_TYPE":"PAYLOAD","RCS_SIZE":"LARGE","TLE_LINE1":"1 49746U 21115Y   22013.91667824 -.00033371  00000-0 -80447-3 0  9996","NORAD_CAT_ID":"49746","CENTER_NAME":"EARTH","EPOCH":"2022-01-13T22:00:00.999936","MEAN_ELEMENT_THEORY":"SGP4","RA_OF_ASC_NODE":"119.5276","REV_AT_EPOCH":"361","LAUNCH_DATE":"2021-12-02","MEAN_MOTION":"15.40485149","COUNTRY_CODE":"US","SEMIMAJOR_AXIS":"6822.813","ARG_OF_PERICENTER":"23.5568","APOAPSIS":"446.375","GP_ID":"193814276","FILE":"3272312","ECCENTRICITY":"0.00024860","INCLINATION":"53.2166","BSTAR":"-0.00080447000000","REF_FRAME":"TEME","MEAN_MOTION_DDOT":"0.0000000000000","PERIOD":"93.477","EPHEMERIS_TYPE":"0","DECAY_DATE":null,"SITE":"AFETR","CLASSIFICATION_TYPE":"U","MEAN_MOTION_DOT":"-0.00033371","ELEMENT_SET_NO":"999","TLE_LINE2":"2 49746  53.2166 119.5276 0002486  23.5568 269.2276 15.40485149  3610","PERIAPSIS":"442.982","OBJECT_NAME":"STARLINK-3233"}];
